NORAD_CAT_ID,OBJECT_NAME,OBJECT_TYPE,EPOCH,MEAN_MOTION,ECCENTRICITY,INCLINATION,RA_OF_ASC_NODE,ARG_OF_PERICENTER,MEAN_ANOMALY,BSTAR,MEAN_MOTION_DOT,MEAN_MOTION_DDOT,TLE_LINE0,TLE_LINE1,TLE_LINE2,SEMIMAJOR_AXIS,PERIOD,APOGEE,PERIGEE,DECAYED
55436.0,STARLINK-5640,PAYLOAD,2024-02-08 14:26:10,14.98335798,0.0003076,69.9986,220.9544,272.3304,87.7503,-0.00019272,-2.392e-05,0.0,0 STARLINK-5640,1 55436U 23014AX  24039.60150650 -.00002392  00000-0 -19272-3 0  9996,2 55436  69.9986 220.9544 0003076 272.3304  87.7503 14.98335798 57217,6950.175,96.107,574.178,569.902,0.0
55436.0,STARLINK-5640,PAYLOAD,2024-02-08 19:14:34,14.98335221,0.0002837,69.9991,220.4496,267.8669,92.2165,-0.00017711,-2.206e-05,0.0,0 STARLINK-5640,1 55436U 23014AX  24039.80178575 -.00002206  00000-0 -17711-3 0  9994,2 55436  69.9991 220.4496 0002837 267.8669  92.2165 14.98335221 56306,6950.177,96.107,574.014,570.07,0.0
55436.0,STARLINK-5640,PAYLOAD,2024-02-08 20:50:42,14.98335346,0.0002874,69.999,220.2812,269.1809,90.902,-0.00016893,-2.108e-05,0.0,0 STARLINK-5640,1 55436U 23014AX  24039.86854529 -.00002108  00000-0 -16893-3 0  9991,2 55436  69.9990 220.2812 0002874 269.1809  90.9020 14.98335346 57255,6950.176,96.107,574.039,570.044,0.0
55436.0,STARLINK-5640,PAYLOAD,2024-02-09 14:28:11,14.98320926,0.0003102,69.9992,218.4296,272.1572,87.9232,0.00013152,1.476e-05,0.0,0 STARLINK-5640,1 55436U 23014AX  24040.60290921  .00001476  00000-0  13152-3 0  9995,2 55436  69.9992 218.4296 0003102 272.1572  87.9232 14.98320926 57369,6950.221,96.108,574.242,569.93,0.0
55436.0,STARLINK-5640,PAYLOAD,2024-02-09 19:16:35,14.98321794,0.0003099,69.9993,217.9247,272.3025,87.7779,0.000138,1.554e-05,0.0,0 STARLINK-5640,1 55436U 23014AX  24040.80319017  .00001554  00000-0  13800-3 0  9992,2 55436  69.9993 217.9247 0003099 272.3025  87.7779 14.98321794 56457,6950.218,96.108,574.237,569.929,0.0
55436.0,STARLINK-5640,PAYLOAD,2024-02-10 14:30:12,14.98324296,0.0003042,69.9998,215.9054,268.9493,91.1318,9.5554e-05,1.047e-05,0.0,0 STARLINK-5640,1 55436U 23014AX  24041.60431486  .00001047  00000-0  95554-4 0  9990,2 55436  69.9998 215.9054 0003042 268.9493  91.1318 14.98324296 57510,6950.211,96.107,574.19,569.961,0.0
55436.0,STARLINK-5640,PAYLOAD,2024-02-10 19:18:37,14.98324332,0.0003011,70.0,215.4007,267.4412,92.6402,9.5623e-05,1.048e-05,0.0,0 STARLINK-5640,1 55436U 23014AX  24041.80459568  .00001048  00000-0  95623-4 0  9991,2 55436  70.0000 215.4007 0003011 267.4412  92.6402 14.98324332 56601,6950.21,96.107,574.168,569.983,0.0
55436.0,STARLINK-5640,PAYLOAD,2024-02-10 20:54:45,14.98324878,0.0003071,69.9998,215.2321,270.4468,89.6339,9.4711e-05,1.037e-05,0.0,0 STARLINK-5640,1 55436U 23014AX  24041.87135577  .00001037  00000-0  94711-4 0  9994,2 55436  69.9998 215.2321 0003071 270.4468  89.6339 14.98324878 57557,6950.209,96.107,574.208,569.939,0.0
55436.0,STARLINK-5640,PAYLOAD,2024-02-11 14:32:13,14.98330726,0.000314,69.9998,213.3805,270.5043,89.5757,0.00010738,1.188e-05,0.0,0 STARLINK-5640,1 55436U 23014AX  24042.60571370  .00001188  00000-0  10738-3 0  9994,2 55436  69.9998 213.3805 0003140 270.5043  89.5757 14.98330726 57664,6950.191,96.107,574.238,569.873,0.0
55436.0,STARLINK-5640,PAYLOAD,2024-02-11 19:20:37,14.98332377,0.0003122,69.9999,212.8757,270.5781,89.502,0.00012412,1.388e-05,0.0,0 STARLINK-5640,1 55436U 23014AX  24042.80599250  .00001388  00000-0  12412-3 0  9996,2 55436  69.9999 212.8757 0003122 270.5781  89.5020 14.98332377 56750,6950.186,96.107,574.22,569.881,0.0
55436.0,STARLINK-5640,PAYLOAD,2024-02-11 20:56:45,14.98332345,0.0003121,69.9999,212.7075,270.5557,89.5244,0.00012045,1.345e-05,0.0,0 STARLINK-5640,1 55436U 23014AX  24042.87275227  .00001345  00000-0  12045-3 0  9993,2 55436  69.9999 212.7075 0003121 270.5557  89.5244 14.98332345 57701,6950.186,96.107,574.22,569.881,0.0
55436.0,STARLINK-5640,PAYLOAD,2024-02-12 14:34:14,14.98332068,0.0003125,70.0,210.8557,270.146,89.9341,0.0001465,1.656e-05,0.0,0 STARLINK-5640,1 55436U 23014AX  24043.60711349  .00001656  00000-0  14650-3 0  9994,2 55436  70.0000 210.8557 0003125 270.1460  89.9341 14.98332068 57810,6950.186,96.107,574.223,569.88,0.0
55436.0,STARLINK-5640,PAYLOAD,2024-02-12 19:22:38,14.9833472,0.0003105,70.0,210.3507,270.1933,89.8871,0.00017396,1.983e-05,0.0,0 STARLINK-5640,1 55436U 23014AX  24043.80739146  .00001983  00000-0  17396-3 0  9994,2 55436  70.0000 210.3507 0003105 270.1933  89.8871 14.98334720 56906,6950.178,96.107,574.201,569.885,0.0
55436.0,STARLINK-5640,PAYLOAD,2024-02-12 20:58:46,14.98334439,0.0003105,70.0001,210.1824,270.2054,89.8749,0.00016537,1.881e-05,0.0,0 STARLINK-5640,1 55436U 23014AX  24043.87415099  .00001881  00000-0  16537-3 0  9992,2 55436  70.0001 210.1824 0003105 270.2054  89.8749 14.98334439 57858,6950.179,96.107,574.202,569.886,0.0
55436.0,STARLINK-5640,PAYLOAD,2024-02-13 14:36:15,14.98334253,0.0002927,70.0005,208.3317,265.0805,95.002,8.4608e-05,9.17e-06,0.0,0 STARLINK-5640,1 55436U 23014AX  24044.60851302  .00000917  00000-0  84608-4 0  9999,2 55436  70.0005 208.3317 0002927 265.0805  95.0020 14.98334253 57962,6950.18,96.107,574.079,570.01,0.0
55436.0,STARLINK-5640,PAYLOAD,2024-02-13 19:24:39,14.98336111,0.0002896,70.0006,207.8269,264.8753,95.2076,0.00010103,1.113e-05,0.0,0 STARLINK-5640,1 55436U 23014AX  24044.80879096  .00001113  00000-0  10103-3 0  9998,2 55436  70.0006 207.8269 0002896 264.8753  95.2076 14.98336111 57055,6950.174,96.107,574.052,570.026,0.0
55436.0,STARLINK-5640,PAYLOAD,2024-02-13 21:00:47,14.98336809,0.0002906,70.0005,207.6584,265.8031,94.2796,0.0001068,1.182e-05,0.0,0 STARLINK-5640,1 55436U 23014AX  24044.87555027  .00001182  00000-0  10680-3 0  9996,2 55436  70.0005 207.6584 0002906 265.8031  94.2796 14.98336809 58002,6950.172,96.107,574.057,570.017,0.0
55436.0,STARLINK-5640,PAYLOAD,2024-02-14 03:25:20,14.98331254,0.0002828,70.0009,206.9847,267.4644,92.6192,2.912e-05,2.55e-06,0.0,0 STARLINK-5640,1 55436U 23014AX  24045.14259517  .00000255  00000-0  29120-4 0  9992,2 55436  70.0009 206.9847 0002828 267.4644  92.6192 14.98331254 57102,6950.189,96.107,574.02,570.088,0.0
55436.0,STARLINK-5640,PAYLOAD,2024-02-14 14:38:16,14.98327077,0.0002916,70.0003,205.8064,267.8795,92.203,6.6542e-07,-8.5e-07,0.0,0 STARLINK-5640,1 55436U 23014AX  24045.60991770 -.00000085  00000-0  66542-6 0  9990,2 55436  70.0003 205.8064 0002916 267.8795  92.2030 14.98327077 58111,6950.202,96.107,574.094,570.04,0.0
55436.0,STARLINK-5640,PAYLOAD,2024-02-14 16:14:24,14.9832686,0.0002726,70.0004,205.6382,261.374,98.711,-4.3846e-06,-1.45e-06,0.0,0 STARLINK-5640,1 55436U 23014AX  24045.67667782 -.00000145  00000-0 -43846-5 0  9999,2 55436  70.0004 205.6382 0002726 261.3740  98.7110 14.98326860 58121,6950.203,96.107,573.962,570.173,0.0
55436.0,STARLINK-5640,PAYLOAD,2024-02-15 03:27:21,14.98334555,0.0002938,70.0005,204.4599,269.6696,90.4126,-6.4305e-05,-8.6e-06,0.0,0 STARLINK-5640,1 55436U 23014AX  24046.14399438 -.00000860  00000-0 -64305-4 0  9998,2 55436  70.0005 204.4599 0002938 269.6696  90.4126 14.98334555 57254,6950.179,96.107,574.086,570.002,0.0
55436.0,STARLINK-5640,PAYLOAD,2024-02-15 14:40:17,14.98339754,0.0002813,70.0005,203.282,265.0524,95.0314,-6.0743e-05,-8.18e-06,0.0,0 STARLINK-5640,1 55436U 23014AX  24046.61131156 -.00000818  00000-0 -60743-4 0  9996,2 55436  70.0005 203.2820 0002813 265.0524  95.0314 14.98339754 58268,6950.163,96.106,573.983,570.073,0.0
55436.0,STARLINK-5640,PAYLOAD,2024-02-15 19:28:41,14.98334518,0.0002935,70.0003,202.7768,268.7165,91.3658,8.9553e-05,9.76e-06,0.0,0 STARLINK-5640,1 55436U 23014AX  24046.81159123  .00000976  00000-0  89553-4 0  9995,2 55436  70.0003 202.7768 0002935 268.7165  91.3658 14.98334518 58293,6950.179,96.107,574.084,570.004,0.0
55436.0,STARLINK-5640,PAYLOAD,2024-02-16 03:29:20,14.98362166,0.0003107,70.0003,201.935,266.0034,94.077,-0.00045125,-5.478e-05,0.0,0 STARLINK-5640,1 55436U 23014AX  24047.14538163 -.00005478  00000-0 -45125-3 0  9997,2 55436  70.0003 201.9350 0003107 266.0034  94.0770 14.98362166 57406,6950.093,96.105,574.118,569.799,0.0
55436.0,STARLINK-5640,PAYLOAD,2024-02-16 11:30:02,14.98330425,0.0002957,70.0001,201.0933,268.5676,91.5145,0.00013833,1.558e-05,0.0,0 STARLINK-5640,1 55436U 23014AX  24047.47919211  .00001558  00000-0  13833-3 0  9994,2 55436  70.0001 201.0933 0002957 268.5676  91.5145 14.98330425 57459,6950.192,96.107,574.112,570.001,0.0
55436.0,STARLINK-5640,PAYLOAD,2024-02-16 14:42:18,14.98329559,0.000297,70.0001,200.7567,268.6032,91.4787,0.00012565,1.407e-05,0.0,0 STARLINK-5640,1 55436U 23014AX  24047.61271287  .00001407  00000-0  12565-3 0  9998,2 55436  70.0001 200.7567 0002970 268.6032  91.4787 14.98329559 58414,6950.194,96.107,574.123,569.995,0.0
55436.0,STARLINK-5640,PAYLOAD,2024-02-16 21:06:50,14.98332702,0.0002988,70.0002,200.0835,268.9982,91.0835,0.00014238,1.606e-05,0.0,0 STARLINK-5640,1 55436U 23014AX  24047.87975074  .00001606  00000-0  14238-3 0  9991,2 55436  70.0002 200.0835 0002988 268.9982  91.0835 14.98332702 58450,6950.185,96.107,574.126,569.973,0.0
55436.0,STARLINK-5640,PAYLOAD,2024-02-17 11:32:03,14.98328302,0.0003103,70.0009,198.566,272.2146,87.8658,8.9931e-05,9.8e-06,0.0,0 STARLINK-5640,1 55436U 23014AX  24048.48059440  .00000980  00000-0  89931-4 0  9996,2 55436  70.0009 198.5660 0003103 272.2146  87.8658 14.98328302 57607,6950.198,96.107,574.22,569.906,0.0
55436.0,STARLINK-5640,PAYLOAD,2024-02-17 14:44:19,14.98328263,0.0003018,70.0006,198.2316,272.0372,88.0441,2.7636e-05,2.37e-06,0.0,0 STARLINK-5640,1 55436U 23014AX  24048.61411590  .00000237  00000-0  27636-4 0  9998,2 55436  70.0006 198.2316 0003018 272.0372  88.0441 14.98328263 58568,6950.198,96.107,574.161,569.966,0.0
55436.0,STARLINK-5640,PAYLOAD,2024-02-17 19:32:43,14.98330453,0.0002909,70.0006,197.7249,267.2354,92.8472,4.5823e-05,4.54e-06,0.0,0 STARLINK-5640,1 55436U 23014AX  24048.81439363  .00000454  00000-0  45823-4 0  9997,2 55436  70.0006 197.7249 0002909 267.2354  92.8472 14.98330453 58595,6950.191,96.107,574.078,570.035,0.0
